      2.10          N: GNSS NAV DATA                        RINEX VERSION / TYPE
fic2rin                                 01/06/2019 00:19:13 PGM / RUN BY / DATE
                                                            END OF HEADER
31 19  1  5 23 59 44.0 6.778910756111e-05-2.614797267597e-12 0.000000000000e+00
    3.200000000000e+01 1.625000000000e+01 4.377682348041e-09-2.802767879607e+00
    8.773058652878e-07 9.167516953312e-03 1.064874231815e-05 5.153814851761e+03
    6.047840000000e+05-1.844018697739e-07 2.814135540132e+00 2.980232238770e-08
    9.614075823934e-01 1.765000000000e+02-4.030425035380e-02-7.652104455151e-09
   -5.018066165455e-10 1.000000000000e+00 2.034000000000e+03 0.000000000000e+00
    2.400000000000e+00 0.000000000000e+00-1.350417733192e-08 3.200000000000e+01
    5.990160000000e+05 4.000000000000e+00
15 19  1  5 23 59 44.0-3.334172070026e-04 1.477928890381e-12 0.000000000000e+00
    4.000000000000e+00 5.843750000000e+00 5.769526038204e-09-5.002020102786e-01
    5.215406417847e-07 1.118172379211e-02 4.529953002930e-06 5.153606662750e+03
    6.047840000000e+05 5.960464477539e-08 1.647375528329e+00 1.471489667892e-07
    9.275045305152e-01 2.732500000000e+02 7.545959521789e-01-8.730363654689e-09
    1.525063525017e-10 1.000000000000e+00 2.034000000000e+03 0.000000000000e+00
    2.400000000000e+00 0.000000000000e+00-1.117587089539e-08 4.000000000000e+00
    5.997060000000e+05 4.000000000000e+00
 9 19  1  5 23 59 44.0 4.751482047141e-04-4.433786671143e-12 0.000000000000e+00
    2.000000000000e+00-1.656250000000e+00 5.110570018612e-09 8.051424562722e-01
   -1.378357410431e-07 1.487612607889e-03 4.749745130539e-06 5.153746723175e+03
    6.047840000000e+05-3.725290298462e-09 1.723818495617e+00-1.862645149231e-09
    9.519825337108e-01 2.807187500000e+02 1.688211049087e+00-8.249272186727e-09
    2.178662178596e-11 1.000000000000e+00 2.034000000000e+03 0.000000000000e+00
    2.400000000000e+00 0.000000000000e+00 1.396983861923e-09 2.000000000000e+00
    6.000360000000e+05 4.000000000000e+00
26 19  1  5 23 59 44.0 8.829124271870e-05 1.068656274583e-11 0.000000000000e+00
    2.800000000000e+01 1.262812500000e+02 4.575547732786e-09 2.235272938216e+00
    6.709247827530e-06 3.491811919957e-03 7.493421435356e-06 5.153785818100e+03
    6.047840000000e+05-5.401670932770e-08-2.474322193405e+00 1.117587089539e-07
    9.535379360082e-01 2.322812500000e+02 7.942044152875e-02-8.081050893921e-09
    1.407201472733e-10 1.000000000000e+00 2.034000000000e+03 0.000000000000e+00
    2.400000000000e+00 0.000000000000e+00 7.450580596924e-09 2.800000000000e+01
    6.027360000000e+05 4.000000000000e+00
